{
  "type": "Feature",
  "properties": {
    "name": "Amstelland"
  },
  "geometry": {
    "type": "Polygon",
    "coordinates": [
        [
          [
            4.817679,
            52.2578784
          ],
          [
            4.8420568,
            52.2496055
          ],
          [
            4.8527793,
            52.2423338
          ],
          [
            4.854624,
            52.2423489
          ],
          [
            4.8550274,
            52.2453096
          ],
          [
            4.8569496,
            52.2461411
          ],
          [
            4.8573133,
            52.2477456
          ],
          [
            4.8625445,
            52.2493643
          ],
          [
            4.8658833,
            52.2508419
          ],
          [
            4.8676272,
            52.2511545
          ],
          [
            4.8692137,
            52.2528854
          ],
          [
            4.8737369,
            52.2507145
          ],
          [
            4.8788919,
            52.2532084
          ],
          [
            4.8835786,
            52.2532525
          ],
          [
            4.886882,
            52.2509671
          ],
          [
            4.8910369,
            52.2531896
          ],
          [
            4.8972567,
            52.2511933
          ],
          [
            4.9022189,
            52.2530294
          ],
          [
            4.9095419,
            52.2525664
          ],
          [
            4.9148246,
            52.2556466
          ],
          [
            4.9173382,
            52.256573
          ],
          [
            4.9182132,
            52.2614502
          ],
          [
            4.9226643,
            52.2629826
          ],
          [
            4.9246253,
            52.2670431
          ],
          [
            4.9293826,
            52.2681194
          ],
          [
            4.9271839,
            52.2725133
          ],
          [
            4.926085,
            52.2795873
          ],
          [
            4.9331178,
            52.2802348
          ],
          [
            4.9423892,
            52.2781954
          ],
          [
            4.9466905,
            52.2786318
          ],
          [
            4.9528415,
            52.2777689
          ],
          [
            4.9474585,
            52.2847989
          ],
          [
            4.9162694,
            52.3182107
          ],
          [
            4.9137623,
            52.3218808
          ],
          [
            4.9128826,
            52.3278658
          ],
          [
            4.9074493,
            52.3279904
          ],
          [
            4.8995156,
            52.3313337
          ],
          [
            4.890956,
            52.3350916
          ],
          [
            4.8909071,
            52.3230136
          ],
          [
            4.881736,
            52.3222511
          ],
          [
            4.8825395,
            52.3177657
          ],
          [
            4.8830585,
            52.3021327
          ],
          [
            4.8803523,
            52.2975058
          ],
          [
            4.8707899,
            52.2821757
          ],
          [
            4.8691856,
            52.2746672
          ],
          [
            4.840548,
            52.2785356
          ],
          [
            4.8360278,
            52.2695374
          ],
          [
            4.8289817,
            52.2715241
          ],
          [
            4.817679,
            52.2578784
          ]
        ]
        ]
      }
    }
