{
  "type": "Feature",
  "properties": {
    "name": "De Bovenkerkerpolder"
  },
  "geometry": {
    "type": "Polygon",
    "coordinates":  [
          [
            [
              4.8398215,
              52.2771176
            ],
            [
              4.8362562,
              52.2654026
            ],
            [
              4.8288929,
              52.2562941
            ],
            [
              4.8314507,
              52.2535896
            ],
            [
              4.8432478,
              52.2492271
            ],
            [
              4.85206,
              52.2428682
            ],
            [
              4.8540532,
              52.2424828
            ],
            [
              4.8543679,
              52.2462083
            ],
            [
              4.8556268,
              52.2468506
            ],
            [
              4.8567807,
              52.2485206
            ],
            [
              4.8583543,
              52.2485848
            ],
            [
              4.8594034,
              52.2485848
            ],
            [
              4.8646487,
              52.2508327
            ],
            [
              4.865383,
              52.2515391
            ],
            [
              4.8679008,
              52.2520529
            ],
            [
              4.8690548,
              52.2530163
            ],
            [
              4.869894,
              52.255585
            ],
            [
              4.8722019,
              52.2578968
            ],
            [
              4.8722019,
              52.2606579
            ],
            [
              4.8738804,
              52.261621
            ],
            [
              4.8746324,
              52.2617495
            ],
            [
              4.8776088,
              52.2619871
            ],
            [
              4.881491,
              52.2642839
            ],
            [
              4.8783852,
              52.2668183
            ],
            [
              4.8785146,
              52.2682438
            ],
            [
              4.8795498,
              52.2692733
            ],
            [
              4.8809556,
              52.2716085
            ],
            [
              4.8797281,
              52.271984
            ],
            [
              4.8788977,
              52.2720613
            ],
            [
              4.8775799,
              52.2721166
            ],
            [
              4.8742223,
              52.2725474
            ],
            [
              4.8668148,
              52.2735
            ],
            [
              4.8581613,
              52.2746957
            ],
            [
              4.8398215,
              52.2771176
            ]
          ]
        ]
      }
    }
