{
  "type": "Feature",
  "properties": {
    "name": "De Middenpolder"
  },
  "geometry": {
    "type": "Polygon",
    "coordinates":  [
        [
          [
            4.8908518,
            52.2952237
          ],
          [
            4.8872883,
            52.2958714
          ],
          [
            4.8841791,
            52.2974977
          ],
          [
            4.882897,
            52.3002231
          ],
          [
            4.8829523,
            52.3033134
          ],
          [
            4.8835857,
            52.3092819
          ],
          [
            4.8834591,
            52.3107741
          ],
          [
            4.8850112,
            52.312429
          ],
          [
            4.8839231,
            52.3136787
          ],
          [
            4.8839644,
            52.3172258
          ],
          [
            4.8825677,
            52.3175802
          ],
          [
            4.8821235,
            52.3220415
          ],
          [
            4.8948874,
            52.3225176
          ],
          [
            4.8970276,
            52.3213271
          ],
          [
            4.9013409,
            52.3208851
          ],
          [
            4.9038516,
            52.3200484
          ],
          [
            4.9079748,
            52.3187448
          ],
          [
            4.9080001,
            52.3177752
          ],
          [
            4.9050454,
            52.3166653
          ],
          [
            4.9052903,
            52.3145578
          ],
          [
            4.9049149,
            52.3121559
          ],
          [
            4.9047344,
            52.3102939
          ],
          [
            4.9072912,
            52.3073591
          ],
          [
            4.9063914,
            52.3056242
          ],
          [
            4.9015985,
            52.3024535
          ],
          [
            4.899021,
            52.3008352
          ],
          [
            4.8983781,
            52.2987323
          ],
          [
            4.8951114,
            52.2975365
          ],
          [
            4.8909683,
            52.2952074
          ]
        ]
        ]
      }
    }