{
  "type": "Feature",
  "properties": {
    "name": "De Ronde Hoep"
  },
  "geometry": {
    "type": "Polygon",
    "coordinates": [
      [
          [
            4.8703715,
            52.2536803
          ],
          [
            4.8730552,
            52.2510217
          ],
          [
            4.8776964,
            52.2528011
          ],
          [
            4.8829985,
            52.2535399
          ],
          [
            4.884591,
            52.2527971
          ],
          [
            4.8862354,
            52.2511606
          ],
          [
            4.8881954,
            52.251477
          ],
          [
            4.8907337,
            52.2530502
          ],
          [
            4.8929312,
            52.2529655
          ],
          [
            4.8967808,
            52.2513105
          ],
          [
            4.8995127,
            52.2510017
          ],
          [
            4.9025153,
            52.2530402
          ],
          [
            4.9068688,
            52.2530289
          ],
          [
            4.910033,
            52.2525103
          ],
          [
            4.9115234,
            52.2531269
          ],
          [
            4.913856,
            52.2549111
          ],
          [
            4.9165368,
            52.2562802
          ],
          [
            4.918747,
            52.2586443
          ],
          [
            4.9183629,
            52.2614723
          ],
          [
            4.9200388,
            52.2621675
          ],
          [
            4.9232855,
            52.2629567
          ],
          [
            4.9245234,
            52.2666246
          ],
          [
            4.92586,
            52.267385
          ],
          [
            4.9295766,
            52.2682911
          ],
          [
            4.9294343,
            52.269505
          ],
          [
            4.928494,
            52.2703553
          ],
          [
            4.9270361,
            52.272162
          ],
          [
            4.9275947,
            52.2735327
          ],
          [
            4.9268655,
            52.2752525
          ],
          [
            4.9269644,
            52.2767828
          ],
          [
            4.9261677,
            52.2783641
          ],
          [
            4.9263581,
            52.2798137
          ],
          [
            4.9247184,
            52.2812788
          ],
          [
            4.9215566,
            52.2812272
          ],
          [
            4.920927,
            52.2832986
          ],
          [
            4.9201729,
            52.2847331
          ],
          [
            4.9167029,
            52.2863028
          ],
          [
            4.9150063,
            52.2873765
          ],
          [
            4.9102434,
            52.288714
          ],
          [
            4.9040932,
            52.2902472
          ],
          [
            4.8970671,
            52.2923258
          ],
          [
            4.891722,
            52.2940033
          ],
          [
            4.8915104,
            52.2925987
          ],
          [
            4.8909785,
            52.2914128
          ],
          [
            4.8876858,
            52.2897841
          ],
          [
            4.88807,
            52.2889811
          ],
          [
            4.8869378,
            52.2871503
          ],
          [
            4.8856431,
            52.2856006
          ],
          [
            4.8840452,
            52.2831227
          ],
          [
            4.8798973,
            52.2798941
          ],
          [
            4.8791489,
            52.2779906
          ],
          [
            4.8802425,
            52.2770374
          ],
          [
            4.8820771,
            52.2748686
          ],
          [
            4.8814738,
            52.2730527
          ],
          [
            4.8823395,
            52.2722216
          ],
          [
            4.8812794,
            52.2705633
          ],
          [
            4.8807783,
            52.2686811
          ],
          [
            4.8800431,
            52.2672308
          ],
          [
            4.882974,
            52.2647348
          ],
          [
            4.8824812,
            52.2636514
          ],
          [
            4.8807684,
            52.262285
          ],
          [
            4.8786126,
            52.2610647
          ],
          [
            4.8741634,
            52.2607784
          ],
          [
            4.8734544,
            52.2593671
          ],
          [
            4.8742149,
            52.257907
          ],
          [
            4.8703944,
            52.253751
          ],
          [
            4.871753,
            52.2541524
          ]
        ]
        ]
      }
    }

